0 COSMOS 1199
1 11882U 80058H   13281.77339602  .00000012  00000-0  20582-3 0  7916
2 11882 074.0167 263.2812 0037235 319.7510 106.3741 12.41145868506741
0 COSMOS 1199
1 11882U 80058H   13283.78883832 -.00000006  00000-0  72440-4 0  7924
2 11882 074.0168 260.6446 0037258 316.8167 111.5799 12.41146139506997
0 COSMOS 1199
1 11882U 80058H   13285.80615044 -.00000035  00000-0 -13907-3 0  7933
2 11882 074.0171 258.0055 0037268 313.9177 125.1035 12.41146400507242
0 COSMOS 1199
1 11882U 80058H   13287.82054226 -.00000041  00000-0 -18644-3 0  7947
2 11882 074.0176 255.3702 0037285 311.0036 125.5999 12.41146379507493
0 COSMOS 1199
1 11882U 80058H   13290.08799646 -.00000016  00000-0 -23367-7 0  7956
2 11882 074.0181 252.4039 0037293 307.7145 176.8139 12.41145993507779
0 COSMOS 1199
1 11882U 80058H   13292.10362146  .00000010  00000-0  19150-3 0  7966
2 11882 074.0183 249.7674 0037298 304.8089 182.8094 12.41145838508029
0 COSMOS 1199
1 11882U 80058H   13294.19392434  .00000008  00000-0  17520-3 0  7977
2 11882 074.0184 247.0334 0037318 301.7707 162.4948 12.41145953508288
